[
    {
        "CCSDS_OMM_VERS": "3.0",
        "COMMENT": "GENERATED VIA SPACE-TRACK.ORG API",
        "CREATION_DATE": "2025-05-04T02:26:54",
        "ORIGINATOR": "18 SPCS",
        "OBJECT_NAME": "BEIDOU 3 M28",
        "OBJECT_ID": "2023-207A",
        "CENTER_NAME": "EARTH",
        "REF_FRAME": "TEME",
        "TIME_SYSTEM": "UTC",
        "MEAN_ELEMENT_THEORY": "SGP4",
        "EPOCH": "2025-05-03T14:25:27.446304",
        "MEAN_MOTION": "1.86229882",
        "ECCENTRICITY": "0.00044580",
        "INCLINATION": "55.3872",
        "RA_OF_ASC_NODE": "76.1608",
        "ARG_OF_PERICENTER": "313.5501",
        "MEAN_ANOMALY": "46.3831",
        "EPHEMERIS_TYPE": "0",
        "CLASSIFICATION_TYPE": "U",
        "NORAD_CAT_ID": "58654",
        "ELEMENT_SET_NO": "999",
        "REV_AT_EPOCH": "921",
        "BSTAR": "0.00000000000000",
        "MEAN_MOTION_DOT": "-0.00000016",
        "MEAN_MOTION_DDOT": "0.0000000000000",
        "SEMIMAJOR_AXIS": "27906.300",
        "PERIOD": "773.238",
        "APOAPSIS": "21540.606",
        "PERIAPSIS": "21515.725",
        "OBJECT_TYPE": "PAYLOAD",
        "RCS_SIZE": "LARGE",
        "COUNTRY_CODE": "PRC",
        "LAUNCH_DATE": "2023-12-26",
        "SITE": "XSC",
        "DECAY_DATE": null,
        "FILE": "4718307",
        "GP_ID": "286808134",
        "TLE_LINE0": "0 BEIDOU 3 M28",
        "TLE_LINE1": "1 58654U 23207A   25123.60101211 -.00000016  00000-0  00000-0 0  9995",
        "TLE_LINE2": "2 58654  55.3872  76.1608 0004458 313.5501  46.3831  1.86229882  9210"
    }
]